DELTA 1 R/B             
1 20323U 89089B   25332.84371654  .00000383  00000+0  10318-3 0  9996
2 20323  97.0763 191.2829 0070721  81.3928 279.5274 14.50554514881113
ARIANE 40 R/B           
1 20443U 90005H   25332.77074375  .00000336  00000+0  12065-3 0  9990
2 20443  98.3263  31.3423 0010890 143.9233 216.2693 14.39781911878281
DELTA 2 R/B(1)          
1 20453U 90008B   25332.46513966  .00039835  00000+0  66801-3 0  9997
2 20453  35.6050 112.6067 0113472  47.8588 313.1721 15.43764727910426
COSMOS 2058             
1 20465U 90010A   25332.64651276  .00004401  00000+0  26698-3 0  9991
2 20465  82.4630 146.8951 0009001 331.4269  28.6466 15.10278557926981
SL-14 R/B               
1 20466U 90010B   25332.58060822  .00000476  00000+0  54966-4 0  9994
2 20466  82.5028   2.3456 0018266 273.3610  86.5515 14.83450944913498
SL-14 R/B               
1 20511U 90018B   25332.50125057  .00000543  00000+0  65248-4 0  9997
2 20511  82.5199 317.6743 0017885  67.2344 293.0758 14.82023648907593
HST                     
1 20580U 90037B   25332.81411346  .00007684  00000+0  26733-3 0  9995
2 20580  28.4701   7.2506 0002107  90.1002 269.9835 15.27755767757868
SL-16 R/B               
1 20625U 90046B   25332.60741027  .00000347  00000+0  20381-3 0  9996
2 20625  70.9967 150.2004 0012136  99.7956 260.4537 14.14994214834095
COSMOS 2084             
1 20663U 90055A   25332.41513594  .00003014  00000+0  22373-3 0  9990
2 20663  62.7912 320.7975 0033912 172.9285 187.2301 15.04881192921071
SL-6 R/B(2)             
1 20666U 90055D   25332.79594784  .00002213  00000+0  17811-3 0  9995
2 20666  62.7829 236.7902 0011542 297.6404  62.3523 15.02977841923021
SL-8 R/B                
1 20775U 90078B   25332.78819762  .00026507  00000+0  82105-3 0  9996
2 20775  82.9055 341.7909 0376520 352.7575   6.8283 14.85062681794303
SL-8 R/B                
1 21088U 91006B   25332.53654190  .00000096  00000+0  81608-4 0  9994
2 21088  82.9429 245.2767 0021739 321.7582 211.1989 13.77487644750147
OKEAN-3                 
1 21397U 91039A   25332.77758943  .00003884  00000+0  27892-3 0  9992
2 21397  82.5178  74.5588 0013618 317.1109  42.9054 15.03978037849865
COSMOS 2151             
1 21422U 91042A   25332.81133648  .00001786  00000+0  14274-3 0  9998
2 21422  82.4970 180.9245 0013651  44.6782 315.5539 14.99610561848079
SL-14 R/B               
1 21423U 91042B   25332.46554254  .00000512  00000+0  61891-4 0  9994
2 21423  82.4916 315.1101 0016196 209.1484 150.8828 14.81718220838080
ERS-1                   
1 21574U 91050A   25332.62528739  .00000334  00000+0  12162-3 0  9995
2 21574  98.7914 343.3269 0032675 140.7186 219.6380 14.39347684801196
ARIANE 40 R/B           
1 21610U 91050F   25332.63910107  .00000372  00000+0  12408-3 0  9996
2 21610  98.2186  23.5774 0003632  39.7255 320.4201 14.42794784804429
INTERCOSMOS 25          
1 21819U 91086A   25332.59995425  .00001519  00000+0  29964-3 0  9996
2 21819  82.6068  11.1266 1487374 334.8901  18.6398 12.11649836484442
SL-8 R/B                
1 21876U 92008B   25332.81281889  .00000148  00000+0  13624-3 0  9994
2 21876  82.9265 342.8067 0035874  57.8086 115.0307 13.75954341695547
SL-8 R/B                
1 21938U 92020B   25332.80269740  .00000070  00000+0  57426-4 0  9991
2 21938  82.9316 228.6656 0028043 217.6814 206.5308 13.75524273687267
USA 81                  
1 21949U 92023A   25332.85247203  .00000196  00000+0  65117-4 0  9996
2 21949  85.0091 189.5845 0002050  64.4434 295.6970 14.32319267 80354
COSMOS 2219             
1 22219U 92076A   25332.78896885 -.00000256  00000+0 -10961-3 0  9998
2 22219  71.0601 228.9943 0018680 346.2866  13.7747 14.14065508704114
SL-16 R/B               
1 22220U 92076B   25332.60557426  .00000263  00000+0  15492-3 0  9996
2 22220  71.0016  41.3050 0015070 252.5028 212.0732 14.16839161707512
COSMOS 2221             
1 22236U 92080A   25332.83590167  .00001686  00000+0  14903-3 0  9998
2 22236  82.5057  15.6327 0015006 165.6936 194.4714 14.95679656765710
SL-16 R/B               
1 22285U 92093B   25332.39783288 -.00000244  00000+0 -10072-3 0  9999
2 22285  71.0209 216.9013 0001959 115.7114 244.4211 14.15426784698829
COSMOS 2228             
1 22286U 92094A   25332.78415834  .00002183  00000+0  18887-3 0  9997
2 22286  82.5177 333.8883 0016340 283.0906  76.8493 14.96628084760963
SL-16 R/B               
1 22566U 93016B   25332.64020803 -.00000061  00000+0 -68960-5 0  9990
2 22566  71.0092  67.4150 0008057 124.3058 235.8828 14.15289136687870
COSMOS 2242             
1 22626U 93024A   25332.59011108  .00002063  00000+0  18133-3 0  9995
2 22626  82.5201   3.3691 0014874 286.8458  73.1132 14.96017242765275
SL-16 R/B               
1 22803U 93059B   25332.40395554 -.00000013  00000+0  17560-4 0  9998
2 22803  70.9895 224.7152 0017094 356.8780   3.2234 14.17207904665181
ARIANE 40 R/B           
1 22830U 93061H   25332.79116794  .00000248  00000+0  10670-3 0  9993
2 22830  98.5095  38.5739 0010095 217.9723 142.0750 14.32787037679658
COSMOS 2278             
1 23087U 94023A   25332.60306322  .00000072  00000+0  62198-4 0  9993
2 23087  71.0557  26.5866 0009159 199.5021 160.5753 14.14350057630513
SL-16 R/B               
1 23088U 94023B   25332.62501084  .00000304  00000+0  18160-3 0  9995
2 23088  70.9996 283.1265 0001089  98.3942 261.7304 14.14993989631799
SL-16 R/B               
1 23343U 94074B   25332.61515818  .00000528  00000+0  77679-4 0  9993
2 23343  97.7219   2.4803 0006505 177.9420 295.5171 14.79264342672305
SL-16 R/B               
1 23405U 94077B   25332.78732579 -.00000244  00000+0 -10013-3 0  9993
2 23405  70.9814 204.7654 0004556 295.2201  64.8449 14.15546252601955
ARIANE 40+ R/B          
1 23561U 95021B   25332.77657265  .00000342  00000+0  12311-3 0  9993
2 23561  98.4669  40.5330 0007889  86.5412  23.4472 14.39678563604727
SL-16 R/B               
1 23705U 95058B   25332.57732967  .00000141  00000+0  96420-4 0  9995
2 23705  71.0224  32.5389 0014911 273.1063  86.8354 14.15475305553544
SL-16 R/B               
1 24298U 96051B   25332.60746964 -.00000031  00000+0  99537-5 0  9995
2 24298  70.7607  29.1977 0018974 278.8770  81.0201 14.12394348507370
ORBVIEW 2 (SEASTAR)     
1 24883U 97037A   25332.41640679  .00000328  00000+0  13036-3 0  9991
2 24883  98.8451 129.1309 0002362  24.2019 335.9277 14.35400033493946
SL-16 R/B               
1 25400U 98043G   25332.76544028  .00000092  00000+0  57433-4 0  9992
2 25400  98.8104 280.5069 0009026 311.8172  48.2236 14.26020181424609
SL-16 R/B               
1 25407U 98045B   25332.63793391  .00000289  00000+0  16994-3 0  9990
2 25407  71.0127  34.0827 0007780 197.1154 162.9708 14.16172638412797
ISS (ZARYA)             
1 25544U 98067A   25332.54438814  .00008991  00000+0  17015-3 0  9995
2 25544  51.6312 212.7497 0003745 179.2752 180.8242 15.49168962540650
CZ-4B R/B               
1 25732U 99025C   25332.87300053  .00000076  00000+0  57760-4 0  9996
2 25732  98.6790  14.4620 0036038 274.9543 258.8674 14.18238272373877
OKEAN-O                 
1 25860U 99039A   25332.59311516  .00000802  00000+0  11265-3 0  9994
2 25860  97.9623  28.4161 0000972  72.9808 287.1511 14.80123340419435
SL-16 R/B               
1 25861U 99039B   25332.60181260  .00000684  00000+0  93935-4 0  9991
2 25861  98.0147  26.7509 0013927 221.5643 138.4512 14.81554193421896
DELTA 2 R/B             
1 25876U 99041E   25332.48015217  .00000952  00000+0  19323-3 0  9990
2 25876  51.7621 345.3667 0504892  49.7451 314.6517 14.11343567348731
HELIOS 1B               
1 25977U 99064A   25332.60745303  .00002136  00000+0  24392-3 0  9995
2 25977  98.1749 226.8546 0002293  61.2835 298.8610 14.87191008670235
TERRA                   
1 25994U 99068A   25332.82955867  .00000522  00000+0  11576-3 0  9997
2 25994  97.9769  25.0229 0003266 126.0283 290.0051 14.60927279380350
SL-16 R/B               
1 26070U 00006B   25332.34453823  .00000318  00000+0  18608-3 0  9995
2 26070  71.0022 310.9255 0017624 328.8595  31.1482 14.15803700334215
TITAN 4B R/B            
1 26474U 00047B   25332.75456421  .00003798  00000+0  24615-3 0  9990
2 26474  67.9901 324.1289 0039994 161.0535 199.2113 15.08623692377680
ENVISAT                 
1 27386U 02009A   25332.67287025  .00000155  00000+0  64082-4 0  9993
2 27386  98.3580 283.7717 0001242  82.2784  91.0843 14.38990998244641
IDEFIX & ARIANE 42P R/B 
1 27422U 02021B   25332.80821563  .00000328  00000+0  14115-3 0  9997
2 27422  98.5767 267.6814 0012709 121.2355 239.0074 14.30934077229593
AQUA                    
1 27424U 02022A   25332.85510862  .00001170  00000+0  24438-3 0  9997
2 27424  98.4018 293.5105 0000631  98.0754 284.0417 14.61756457254002
CZ-4B R/B               
1 27432U 02024C   25332.79155684  .00000051  00000+0  49683-4 0  9995
2 27432  98.9022  21.6107 0049332 310.2798 161.4679 14.14523295214971
MIDORI II (ADEOS-II)    
1 27597U 02056A   25332.78361549  .00000306  00000+0  13832-3 0  9999
2 27597  98.7616 285.6683 0000579  15.2401 344.8797 14.29190757195889
H-2A R/B                
1 27601U 02056E   25332.79242866  .00000336  00000+0  13200-3 0  9998
2 27601  98.3048 292.1064 0071467 102.0264 320.5012 14.33659086199652
CZ-4B R/B               
1 28059U 03049C   25332.56578918  .00000430  00000+0  11027-3 0  9994
2 28059  98.6780 318.5953 0048200 178.9233 181.2075 14.54889172171894
CZ-2C R/B               
1 28222U 04012C   25332.83818823  .00035905  00000+0  54826-3 0  9998
2 28222  97.7451  24.3242 0017450 324.2910  35.7174 15.54177987188565
SL-16 R/B               
1 28353U 04021B   25332.76170052  .00000013  00000+0  31666-4 0  9990
2 28353  71.0019  84.2967 0005970 216.7191 143.3523 14.14582327108563
CZ-4B R/B               
1 28415U 04035C   25332.80187784  .00008357  00000+0  31288-3 0  9997
2 28415  97.3634   3.3342 0032611 329.0533  30.8784 15.27041436164506
